[{"OBJECT_NAME":"ONEWEB-0288","OBJECT_ID":"2021-075D","EPOCH":"2026-06-19T21:58:42.096000","MEAN_MOTION":13.12444065,"ECCENTRICITY":0.0002036,"INCLINATION":87.8947,"RA_OF_ASC_NODE":350.1123,"ARG_OF_PERICENTER":91.8282,"MEAN_ANOMALY":268.308,"EPHEMERIS_TYPE":0,"CLASSIFICATION_TYPE":"U","NORAD_CAT_ID":49078,"ELEMENT_SET_NO":999,"REV_AT_EPOCH":23554,"BSTAR":-0.0011043000000000001,"MEAN_MOTION_DOT":-3.85e-06,"MEAN_MOTION_DDOT":0.0},{"OBJECT_NAME":"ONEWEB-0289","OBJECT_ID":"2021-075E","EPOCH":"2026-06-20T00:21:32.613984","MEAN_MOTION":13.17650577,"ECCENTRICITY":0.0001929,"INCLINATION":87.9138,"RA_OF_ASC_NODE":5.32,"ARG_OF_PERICENTER":100.7628,"MEAN_ANOMALY":259.3721,"EPHEMERIS_TYPE":0,"CLASSIFICATION_TYPE":"U","NORAD_CAT_ID":49079,"ELEMENT_SET_NO":999,"REV_AT_EPOCH":23457,"BSTAR":0.00012673,"MEAN_MOTION_DOT":6.2e-07,"MEAN_MOTION_DDOT":0.0},{"OBJECT_NAME":"ONEWEB-0290","OBJECT_ID":"2021-075F","EPOCH":"2026-06-19T23:42:52.773984","MEAN_MOTION":13.17649052,"ECCENTRICITY":0.0001877,"INCLINATION":87.914,"RA_OF_ASC_NODE":5.2975,"ARG_OF_PERICENTER":104.3255,"MEAN_ANOMALY":255.8085,"EPHEMERIS_TYPE":0,"CLASSIFICATION_TYPE":"U","NORAD_CAT_ID":49080,"ELEMENT_SET_NO":999,"REV_AT_EPOCH":23398,"BSTAR":8.6864e-05,"MEAN_MOTION_DOT":4.7e-07,"MEAN_MOTION_DDOT":0.0},{"OBJECT_NAME":"ONEWEB-0291","OBJECT_ID":"2021-075G","EPOCH":"2026-06-20T06:38:23.980416","MEAN_MOTION":13.17649241,"ECCENTRICITY":0.000222,"INCLINATION":87.9131,"RA_OF_ASC_NODE":5.2475,"ARG_OF_PERICENTER":92.3516,"MEAN_ANOMALY":267.787,"EPHEMERIS_TYPE":0,"CLASSIFICATION_TYPE":"U","NORAD_CAT_ID":49081,"ELEMENT_SET_NO":999,"REV_AT_EPOCH":23401,"BSTAR":3.6627e-05,"MEAN_MOTION_DOT":2.7e-07,"MEAN_MOTION_DDOT":0.0},{"OBJECT_NAME":"ONEWEB-0293","OBJECT_ID":"2021-075H","EPOCH":"2026-06-19T22:08:05.883648","MEAN_MOTION":13.17649003,"ECCENTRICITY":0.0001894,"INCLINATION":87.913,"RA_OF_ASC_NODE":5.3211,"ARG_OF_PERICENTER":93.0177,"MEAN_ANOMALY":267.1171,"EPHEMERIS_TYPE":0,"CLASSIFICATION_TYPE":"U","NORAD_CAT_ID":49082,"ELEMENT_SET_NO":999,"REV_AT_EPOCH":23399,"BSTAR":-6.6116e-05,"MEAN_MOTION_DOT":-1.3e-07,"MEAN_MOTION_DDOT":0.0},{"OBJECT_NAME":"ONEWEB-0294","OBJECT_ID":"2021-075J","EPOCH":"2026-06-19T22:08:27.506112","MEAN_MOTION":13.12445475,"ECCENTRICITY":0.0001899,"INCLINATION":87.8948,"RA_OF_ASC_NODE":350.1147,"ARG_OF_PERICENTER":102.1535,"MEAN_ANOMALY":257.9807,"EPHEMERIS_TYPE":0,"CLASSIFICATION_TYPE":"U","NORAD_CAT_ID":49083,"ELEMENT_SET_NO":999,"REV_AT_EPOCH":23493,"BSTAR":-0.00058219,"MEAN_MOTION_DOT":-1.97e-06,"MEAN_MOTION_DDOT":0.0},{"OBJECT_NAME":"ONEWEB-0295","OBJECT_ID":"2021-075K","EPOCH":"2026-06-19T22:06:53.340480","MEAN_MOTION":13.17648785,"ECCENTRICITY":0.0002179,"INCLINATION":87.913,"RA_OF_ASC_NODE":5.3254,"ARG_OF_PERICENTER":89.0345,"MEAN_ANOMALY":271.1037,"EPHEMERIS_TYPE":0,"CLASSIFICATION_TYPE":"U","NORAD_CAT_ID":49084,"ELEMENT_SET_NO":999,"REV_AT_EPOCH":23395,"BSTAR":-9.207200000000001e-05,"MEAN_MOTION_DOT":-2.3e-07,"MEAN_MOTION_DDOT":0.0},{"OBJECT_NAME":"ONEWEB-0296","OBJECT_ID":"2021-075L","EPOCH":"2026-06-20T04:58:18.852960","MEAN_MOTION":13.1244075,"ECCENTRICITY":0.0002146,"INCLINATION":87.8952,"RA_OF_ASC_NODE":350.0656,"ARG_OF_PERICENTER":92.8942,"MEAN_ANOMALY":267.2432,"EPHEMERIS_TYPE":0,"CLASSIFICATION_TYPE":"U","NORAD_CAT_ID":49085,"ELEMENT_SET_NO":999,"REV_AT_EPOCH":23497,"BSTAR":-0.0008657700000000001,"MEAN_MOTION_DOT":-2.99e-06,"MEAN_MOTION_DDOT":0.0},{"OBJECT_NAME":"ONEWEB-0297","OBJECT_ID":"2021-075M","EPOCH":"2026-06-19T22:23:05.925408","MEAN_MOTION":13.12445367,"ECCENTRICITY":0.0001908,"INCLINATION":87.8939,"RA_OF_ASC_NODE":350.1308,"ARG_OF_PERICENTER":90.4423,"MEAN_ANOMALY":269.6924,"EPHEMERIS_TYPE":0,"CLASSIFICATION_TYPE":"U","NORAD_CAT_ID":49086,"ELEMENT_SET_NO":999,"REV_AT_EPOCH":23554,"BSTAR":0.00034651,"MEAN_MOTION_DOT":1.37e-06,"MEAN_MOTION_DDOT":0.0},{"OBJECT_NAME":"ONEWEB-0298","OBJECT_ID":"2021-075N","EPOCH":"2026-06-19T22:13:09.859584","MEAN_MOTION":13.17648606,"ECCENTRICITY":0.0001832,"INCLINATION":87.9132,"RA_OF_ASC_NODE":5.3225,"ARG_OF_PERICENTER":84.4282,"MEAN_ANOMALY":275.7058,"EPHEMERIS_TYPE":0,"CLASSIFICATION_TYPE":"U","NORAD_CAT_ID":49087,"ELEMENT_SET_NO":999,"REV_AT_EPOCH":23398,"BSTAR":-2.8909000000000004e-05,"MEAN_MOTION_DOT":2e-08,"MEAN_MOTION_DDOT":0.0},{"OBJECT_NAME":"ONEWEB-0299","OBJECT_ID":"2021-075P","EPOCH":"2026-06-19T22:15:23.467680","MEAN_MOTION":13.17650547,"ECCENTRICITY":0.0002023,"INCLINATION":87.9141,"RA_OF_ASC_NODE":5.3027,"ARG_OF_PERICENTER":86.0144,"MEAN_ANOMALY":274.1219,"EPHEMERIS_TYPE":0,"CLASSIFICATION_TYPE":"U","NORAD_CAT_ID":49088,"ELEMENT_SET_NO":999,"REV_AT_EPOCH":23396,"BSTAR":0.00010510000000000001,"MEAN_MOTION_DOT":5.4e-07,"MEAN_MOTION_DDOT":0.0},{"OBJECT_NAME":"ONEWEB-0300","OBJECT_ID":"2021-075Q","EPOCH":"2026-06-19T22:12:06.587136","MEAN_MOTION":13.12443891,"ECCENTRICITY":0.0001752,"INCLINATION":87.895,"RA_OF_ASC_NODE":350.1119,"ARG_OF_PERICENTER":79.3623,"MEAN_ANOMALY":280.7703,"EPHEMERIS_TYPE":0,"CLASSIFICATION_TYPE":"U","NORAD_CAT_ID":49089,"ELEMENT_SET_NO":999,"REV_AT_EPOCH":23556,"BSTAR":-0.0010071,"MEAN_MOTION_DOT":-3.5e-06,"MEAN_MOTION_DDOT":0.0},{"OBJECT_NAME":"ONEWEB-0301","OBJECT_ID":"2021-075R","EPOCH":"2026-06-20T05:08:03.698880","MEAN_MOTION":13.12441018,"ECCENTRICITY":0.0001636,"INCLINATION":87.8944,"RA_OF_ASC_NODE":350.053,"ARG_OF_PERICENTER":82.6466,"MEAN_ANOMALY":277.4849,"EPHEMERIS_TYPE":0,"CLASSIFICATION_TYPE":"U","NORAD_CAT_ID":49090,"ELEMENT_SET_NO":999,"REV_AT_EPOCH":23496,"BSTAR":-0.0012211,"MEAN_MOTION_DOT":-4.27e-06,"MEAN_MOTION_DDOT":0.0},{"OBJECT_NAME":"ONEWEB-0302","OBJECT_ID":"2021-075S","EPOCH":"2026-06-20T04:48:33.464448","MEAN_MOTION":13.12443046,"ECCENTRICITY":0.0001979,"INCLINATION":87.8949,"RA_OF_ASC_NODE":350.0671,"ARG_OF_PERICENTER":99.6726,"MEAN_ANOMALY":260.4626,"EPHEMERIS_TYPE":0,"CLASSIFICATION_TYPE":"U","NORAD_CAT_ID":49091,"ELEMENT_SET_NO":999,"REV_AT_EPOCH":23494,"BSTAR":-6.139200000000001e-05,"MEAN_MOTION_DOT":-9e-08,"MEAN_MOTION_DDOT":0.0},{"OBJECT_NAME":"ONEWEB-0304","OBJECT_ID":"2021-075T","EPOCH":"2026-06-19T23:28:17.256864","MEAN_MOTION":13.17649645,"ECCENTRICITY":0.0002005,"INCLINATION":87.9132,"RA_OF_ASC_NODE":5.3149,"ARG_OF_PERICENTER":87.8507,"MEAN_ANOMALY":272.2854,"EPHEMERIS_TYPE":0,"CLASSIFICATION_TYPE":"U","NORAD_CAT_ID":49092,"ELEMENT_SET_NO":999,"REV_AT_EPOCH":23394,"BSTAR":0.00016198000000000002,"MEAN_MOTION_DOT":7.6e-07,"MEAN_MOTION_DDOT":0.0},{"OBJECT_NAME":"ONEWEB-0305","OBJECT_ID":"2021-075U","EPOCH":"2026-06-19T23:18:34.260768","MEAN_MOTION":13.17649659,"ECCENTRICITY":0.0002225,"INCLINATION":87.9139,"RA_OF_ASC_NODE":5.3008,"ARG_OF_PERICENTER":85.3877,"MEAN_ANOMALY":274.7509,"EPHEMERIS_TYPE":0,"CLASSIFICATION_TYPE":"U","NORAD_CAT_ID":49093,"ELEMENT_SET_NO":999,"REV_AT_EPOCH":23397,"BSTAR":5.258000000000001e-05,"MEAN_MOTION_DOT":3.3e-07,"MEAN_MOTION_DDOT":0.0},{"OBJECT_NAME":"ONEWEB-0308","OBJECT_ID":"2021-075V","EPOCH":"2026-06-20T04:38:48.012864","MEAN_MOTION":13.12442446,"ECCENTRICITY":0.0001788,"INCLINATION":87.8948,"RA_OF_ASC_NODE":350.0608,"ARG_OF_PERICENTER":91.3361,"MEAN_ANOMALY":268.7972,"EPHEMERIS_TYPE":0,"CLASSIFICATION_TYPE":"U","NORAD_CAT_ID":49094,"ELEMENT_SET_NO":999,"REV_AT_EPOCH":23495,"BSTAR":0.00040572000000000004,"MEAN_MOTION_DOT":1.59e-06,"MEAN_MOTION_DDOT":0.0},{"OBJECT_NAME":"ONEWEB-0309","OBJECT_ID":"2021-075W","EPOCH":"2026-06-20T06:40:49.400256","MEAN_MOTION":13.17648261,"ECCENTRICITY":0.0002051,"INCLINATION":87.9128,"RA_OF_ASC_NODE":5.2479,"ARG_OF_PERICENTER":102.4185,"MEAN_ANOMALY":257.7176,"EPHEMERIS_TYPE":0,"CLASSIFICATION_TYPE":"U","NORAD_CAT_ID":49095,"ELEMENT_SET_NO":999,"REV_AT_EPOCH":23398,"BSTAR":-0.00013988,"MEAN_MOTION_DOT":-4.1e-07,"MEAN_MOTION_DDOT":0.0},{"OBJECT_NAME":"ONEWEB-0310","OBJECT_ID":"2021-075X","EPOCH":"2026-06-20T05:00:44.909568","MEAN_MOTION":13.1244099,"ECCENTRICITY":0.0001804,"INCLINATION":87.8937,"RA_OF_ASC_NODE":350.0791,"ARG_OF_PERICENTER":91.9979,"MEAN_ANOMALY":268.1357,"EPHEMERIS_TYPE":0,"CLASSIFICATION_TYPE":"U","NORAD_CAT_ID":49096,"ELEMENT_SET_NO":999,"REV_AT_EPOCH":23558,"BSTAR":-0.0009431000000000001,"MEAN_MOTION_DOT":-3.27e-06,"MEAN_MOTION_DDOT":0.0},{"OBJECT_NAME":"ONEWEB-0311","OBJECT_ID":"2021-075Y","EPOCH":"2026-06-20T06:50:32.692704","MEAN_MOTION":13.1764981,"ECCENTRICITY":0.0002204,"INCLINATION":87.9134,"RA_OF_ASC_NODE":5.2463,"ARG_OF_PERICENTER":80.685,"MEAN_ANOMALY":279.4531,"EPHEMERIS_TYPE":0,"CLASSIFICATION_TYPE":"U","NORAD_CAT_ID":49097,"ELEMENT_SET_NO":999,"REV_AT_EPOCH":23403,"BSTAR":1.0485e-05,"MEAN_MOTION_DOT":1.7e-07,"MEAN_MOTION_DDOT":0.0},{"OBJECT_NAME":"ONEWEB-0312","OBJECT_ID":"2021-075Z","EPOCH":"2026-06-19T23:55:01.462080","MEAN_MOTION":13.17653317,"ECCENTRICITY":0.000215,"INCLINATION":87.9131,"RA_OF_ASC_NODE":5.3144,"ARG_OF_PERICENTER":90.4955,"MEAN_ANOMALY":269.6423,"EPHEMERIS_TYPE":0,"CLASSIFICATION_TYPE":"U","NORAD_CAT_ID":49098,"ELEMENT_SET_NO":999,"REV_AT_EPOCH":23397,"BSTAR":0.00014442,"MEAN_MOTION_DOT":6.9e-07,"MEAN_MOTION_DDOT":0.0},{"OBJECT_NAME":"ONEWEB-0313","OBJECT_ID":"2021-075AA","EPOCH":"2026-06-20T00:02:06.626112","MEAN_MOTION":13.17649136,"ECCENTRICITY":0.0001955,"INCLINATION":87.9128,"RA_OF_ASC_NODE":5.319,"ARG_OF_PERICENTER":86.5011,"MEAN_ANOMALY":273.6345,"EPHEMERIS_TYPE":0,"CLASSIFICATION_TYPE":"U","NORAD_CAT_ID":49099,"ELEMENT_SET_NO":999,"REV_AT_EPOCH":23396,"BSTAR":8.0505e-05,"MEAN_MOTION_DOT":4.4e-07,"MEAN_MOTION_DDOT":0.0},{"OBJECT_NAME":"ONEWEB-0314","OBJECT_ID":"2021-075AB","EPOCH":"2026-06-19T23:13:43.426272","MEAN_MOTION":13.17649238,"ECCENTRICITY":0.000225,"INCLINATION":87.9142,"RA_OF_ASC_NODE":5.2986,"ARG_OF_PERICENTER":90.1393,"MEAN_ANOMALY":269.9996,"EPHEMERIS_TYPE":0,"CLASSIFICATION_TYPE":"U","NORAD_CAT_ID":49100,"ELEMENT_SET_NO":999,"REV_AT_EPOCH":23393,"BSTAR":3.6944000000000004e-05,"MEAN_MOTION_DOT":2.7e-07,"MEAN_MOTION_DDOT":0.0}]